{
  "type": "FeatureCollection",
  "features": [
    {
      "type": "Feature",
      "properties": {
        "norad_id": 38496,
        "name": "FENGYUN 1C DEB",
        "group": "fengyun-1c-debris",
        "lat": 0.4673749318916351,
        "lon": -179.31846306787367,
        "alt_km": 918.2520928421955,
        "timestamp": "2025-12-16T23:36:36.486683+00:00",
        "meta_object_name": "FENGYUN 1C DEB",
        "meta_object_id": "1999-025ESF",
        "meta_epoch": "2025-12-12T06:21:34.809408",
        "meta_mean_motion": 14.09997011,
        "meta_eccentricity": 0.00778076,
        "meta_inclination": 98.7646,
        "meta_ra_of_asc_node": 356.0127,
        "meta_arg_of_pericenter": 7.8363,
        "meta_mean_anomaly": 352.4004,
        "meta_ephemeris_type": 0,
        "meta_classification_type": "U",
        "meta_norad_cat_id": 38496,
        "meta_element_set_no": 999,
        "meta_rev_at_epoch": 81014,
        "meta_bstar": 0.001223388,
        "meta_mean_motion_dot": 2.177e-05,
        "meta_mean_motion_ddot": 0,
        "tle_line1": "1 38496U 99025ESF 25346.26498622  .00002177  00000+0  12234-2 0  9994",
        "tle_line2": "2 38496  98.7646 356.0127 0077807   7.8363 352.4004 14.09997011810145"
      },
      "geometry": {
        "type": "Point",
        "coordinates": [
          -179.31846306787367,
          0.4673749318916351
        ]
      }
    },
    {
      "type": "Feature",
      "properties": {
        "norad_id": 38498,
        "name": "FENGYUN 1C DEB",
        "group": "fengyun-1c-debris",
        "lat": 66.46768763768122,
        "lon": -12.335423843035892,
        "alt_km": 845.3018082086955,
        "timestamp": "2025-12-16T23:36:36.486693+00:00",
        "meta_object_name": "FENGYUN 1C DEB",
        "meta_object_id": "1999-025ESH",
        "meta_epoch": "2025-12-12T19:17:29.257440",
        "meta_mean_motion": 12.96613465,
        "meta_eccentricity": 0.05559349,
        "meta_inclination": 99.699,
        "meta_ra_of_asc_node": 7.0616,
        "meta_arg_of_pericenter": 72.0165,
        "meta_mean_anomaly": 294.0708,
        "meta_ephemeris_type": 0,
        "meta_classification_type": "U",
        "meta_norad_cat_id": 38498,
        "meta_element_set_no": 999,
        "meta_rev_at_epoch": 53744,
        "meta_bstar": 0.0024290921,
        "meta_mean_motion_dot": 1.385e-05,
        "meta_mean_motion_ddot": 0,
        "tle_line1": "1 38498U 99025ESH 25346.80381085  .00001385  00000+0  24291-2 0  9996",
        "tle_line2": "2 38498  99.6990   7.0616 0555934  72.0165 294.0708 12.96613465537444"
      },
      "geometry": {
        "type": "Point",
        "coordinates": [
          -12.335423843035892,
          66.46768763768122
        ]
      }
    },
    {
      "type": "Feature",
      "properties": {
        "norad_id": 38510,
        "name": "FENGYUN 1C DEB",
        "group": "fengyun-1c-debris",
        "lat": -16.903794001354083,
        "lon": 177.2633647050462,
        "alt_km": 815.8043219114361,
        "timestamp": "2025-12-16T23:36:36.486703+00:00",
        "meta_object_name": "FENGYUN 1C DEB",
        "meta_object_id": "1999-025ESV",
        "meta_epoch": "2025-12-16T07:23:50.761824",
        "meta_mean_motion": 14.13330157,
        "meta_eccentricity": 0.00990126,
        "meta_inclination": 98.6018,
        "meta_ra_of_asc_node": 359.2503,
        "meta_arg_of_pericenter": 139.579,
        "meta_mean_anomaly": 221.2794,
        "meta_ephemeris_type": 0,
        "meta_classification_type": "U",
        "meta_norad_cat_id": 38510,
        "meta_element_set_no": 999,
        "meta_rev_at_epoch": 88720,
        "meta_bstar": 0.00055421528,
        "meta_mean_motion_dot": 1.048e-05,
        "meta_mean_motion_ddot": 0,
        "tle_line1": "1 38510U 99025ESV 25350.30822641  .00001048  00000+0  55422-3 0  9996",
        "tle_line2": "2 38510  98.6018 359.2503 0099012 139.5790 221.2794 14.13330157887203"
      },
      "geometry": {
        "type": "Point",
        "coordinates": [
          177.2633647050462,
          -16.903794001354083
        ]
      }
    },
    {
      "type": "Feature",
      "properties": {
        "norad_id": 38512,
        "name": "FENGYUN 1C DEB",
        "group": "fengyun-1c-debris",
        "lat": -5.500640692952591,
        "lon": -126.89833541218462,
        "alt_km": 1011.8028402838454,
        "timestamp": "2025-12-16T23:36:36.486717+00:00",
        "meta_object_name": "FENGYUN 1C DEB",
        "meta_object_id": "1999-025ESX",
        "meta_epoch": "2025-12-10T03:21:08.986176",
        "meta_mean_motion": 13.7397021,
        "meta_eccentricity": 0.02264501,
        "meta_inclination": 98.3804,
        "meta_ra_of_asc_node": 226.2794,
        "meta_arg_of_pericenter": 112.1956,
        "meta_mean_anomaly": 250.339,
        "meta_ephemeris_type": 0,
        "meta_classification_type": "U",
        "meta_norad_cat_id": 38512,
        "meta_element_set_no": 999,
        "meta_rev_at_epoch": 59534,
        "meta_bstar": 0.0014232555,
        "meta_mean_motion_dot": 1.573e-05,
        "meta_mean_motion_ddot": 0,
        "tle_line1": "1 38512U 99025ESX 25344.13968734  .00001573  00000+0  14233-2 0  9993",
        "tle_line2": "2 38512  98.3804 226.2794 0226450 112.1956 250.3390 13.73970210595340"
      },
      "geometry": {
        "type": "Point",
        "coordinates": [
          -126.89833541218462,
          -5.500640692952591
        ]
      }
    },
    {
      "type": "Feature",
      "properties": {
        "norad_id": 38514,
        "name": "FENGYUN 1C DEB",
        "group": "fengyun-1c-debris",
        "lat": -1.4841600492746847,
        "lon": 20.375037260698804,
        "alt_km": 647.4565421727493,
        "timestamp": "2025-12-16T23:36:36.486729+00:00",
        "meta_object_name": "FENGYUN 1C DEB",
        "meta_object_id": "1999-025ESZ",
        "meta_epoch": "2025-12-15T08:36:34.013664",
        "meta_mean_motion": 14.15865825,
        "meta_eccentricity": 0.0270398,
        "meta_inclination": 98.0558,
        "meta_ra_of_asc_node": 18.6928,
        "meta_arg_of_pericenter": 6.2148,
        "meta_mean_anomaly": 354.2273,
        "meta_ephemeris_type": 0,
        "meta_classification_type": "U",
        "meta_norad_cat_id": 38514,
        "meta_element_set_no": 999,
        "meta_rev_at_epoch": 88033,
        "meta_bstar": 0.0041625529,
        "meta_mean_motion_dot": 0.00011664,
        "meta_mean_motion_ddot": 0,
        "tle_line1": "1 38514U 99025ESZ 25349.35872701  .00011664  00000+0  41626-2 0  9990",
        "tle_line2": "2 38514  98.0558  18.6928 0270398   6.2148 354.2273 14.15865825880335"
      },
      "geometry": {
        "type": "Point",
        "coordinates": [
          20.375037260698804,
          -1.4841600492746847
        ]
      }
    },
    {
      "type": "Feature",
      "properties": {
        "norad_id": 38516,
        "name": "FENGYUN 1C DEB",
        "group": "fengyun-1c-debris",
        "lat": -68.85590083293934,
        "lon": 132.21483355545976,
        "alt_km": 844.2045695070201,
        "timestamp": "2025-12-16T23:36:36.486742+00:00",
        "meta_object_name": "FENGYUN 1C DEB",
        "meta_object_id": "1999-025ETB",
        "meta_epoch": "2025-12-11T05:08:28.629600",
        "meta_mean_motion": 14.34046614,
        "meta_eccentricity": 0.01114605,
        "meta_inclination": 98.4424,
        "meta_ra_of_asc_node": 329.1639,
        "meta_arg_of_pericenter": 129.7908,
        "meta_mean_anomaly": 231.3156,
        "meta_ephemeris_type": 0,
        "meta_classification_type": "U",
        "meta_norad_cat_id": 38516,
        "meta_element_set_no": 999,
        "meta_rev_at_epoch": 84851,
        "meta_bstar": 0.00015782354,
        "meta_mean_motion_dot": 4.29e-06,
        "meta_mean_motion_ddot": 0,
        "tle_line1": "1 38516U 99025ETB 25345.21422025  .00000429  00000+0  15782-3 0  9995",
        "tle_line2": "2 38516  98.4424 329.1639 0111460 129.7908 231.3156 14.34046614848518"
      },
      "geometry": {
        "type": "Point",
        "coordinates": [
          132.21483355545976,
          -68.85590083293934
        ]
      }
    },
    {
      "type": "Feature",
      "properties": {
        "norad_id": 38717,
        "name": "FENGYUN 1C DEB",
        "group": "fengyun-1c-debris",
        "lat": -70.33402421078719,
        "lon": 159.50594776268244,
        "alt_km": 832.0224123268572,
        "timestamp": "2025-12-16T23:36:36.486752+00:00",
        "meta_object_name": "FENGYUN 1C DEB",
        "meta_object_id": "1999-025ETJ",
        "meta_epoch": "2025-12-15T21:36:40.256352",
        "meta_mean_motion": 14.19957803,
        "meta_eccentricity": 0.00568276,
        "meta_inclination": 99.16,
        "meta_ra_of_asc_node": 5.224,
        "meta_arg_of_pericenter": 344.917,
        "meta_mean_anomaly": 133.6747,
        "meta_ephemeris_type": 0,
        "meta_classification_type": "U",
        "meta_norad_cat_id": 38717,
        "meta_element_set_no": 999,
        "meta_rev_at_epoch": 58471,
        "meta_bstar": 0.0012715187,
        "meta_mean_motion_dot": 2.699e-05,
        "meta_mean_motion_ddot": 0,
        "tle_line1": "1 38717U 99025ETJ 25349.90046593  .00002699  00000+0  12715-2 0  9993",
        "tle_line2": "2 38717  99.1600   5.2240 0056827 344.9170 133.6747 14.19957803584715"
      },
      "geometry": {
        "type": "Point",
        "coordinates": [
          159.50594776268244,
          -70.33402421078719
        ]
      }
    }
  ]
}